C/2020 M3 (ATLAS),e,23.4711,71.1734,328.5927,27.21756,0.0069411,0.95332271,8.8916,04/29.0/2024,2000,g 14.5,4.0
# From MPEC 2023-N01
A/2020 M4,h,11/23.7886/2020,160.1173,348.6231,104.5769,1.000812,5.946600,2000,14.5,2.0
# From MPC xxxxx
P/2020 MK4 (PANSTARRS),e,6.7870,0.6970,94.4053,6.217427,0.0635752,0.01348640,290.1230,04/29.0/2024,2000,g  8.0,4.0
# From MPEC 2023-FK0
C/2020 M5 (ATLAS),h,08/19.8583/2021,93.2018,352.0696,126.2667,1.000286,3.000742,2000,9.0,4.0
# From MPEC 2022-GA9
C/2020 N1 (PANSTARRS),h,03/12.6796/2021,29.7427,279.8861,186.7836,1.000621,1.317117,2000,12.5,4.0
# From MPEC 2021-P47
C/2020 N2 (ATLAS),e,161.0393,257.1728,331.2886,102.8464,0.0009450,0.98259826,0.0000,08/24.1709/2020,2000,g 16.0,3.2
# From MPEC 2023-XP6
C/2020 O2 (Amaral),h,08/28.0537/2021,71.7621,256.7891,10.2572,1.000708,4.860938,2000,8.0,3.2
# From MPEC 2023-C45
P/2020 O3 (PANSTARRS),e,8.4446,266.8188,81.4955,4.646890,0.0983922,0.10267426,116.7515,04/29.0/2024,2000,g 12.0,4.0
# From MPEC 2021-BE3
C/2020 P1 (NEOWISE),h,10/20.8065/2020,45.1698,53.4752,8.9022,1.000376,0.340712,2000,14.0,3.2
# From MPEC 2024-H91
C/2020 P3 (ATLAS),h,04/22.0869/2021,61.8826,19.4711,82.3064,1.002724,6.813449,2000,6.0,4.0
# From MPEC 2022-PB4
C/2020 PV6 (PANSTARRS),e,128.1973,329.1449,71.3440,41.97457,0.0036243,0.94536936,3.4282,04/29.0/2024,2000,g 10.0,4.0
# From MPEC 2022-L66
C/2020 Q1 (Borisov),e,142.9447,52.3958,9.9846,61.69040,0.0020341,0.97862407,0.0000,08/14.7416/2020,2000,g 14.0,4.0
# From MPEC 2023-CD7
C/2020 Q2 (PANSTARRS),e,3.3354,179.8191,118.2872,10.62195,0.0284707,0.49007120,44.2277,04/29.0/2024,2000,g 12.0,3.2
# From MPEC 2024-F34
C/2020 R2 (PANSTARRS),e,53.2269,195.1007,211.8431,424.8309,0.0001126,0.98894789,0.0000,02/25.2319/2022,2000,g  9.0,4.0
# From MPEC 2022-K19
C/2020 R4 (ATLAS),e,164.4317,323.2595,46.6136,99.12798,0.0009986,0.98966981,0.0000,03/02.3664/2021,2000,g 13.5,4.0
# From MPEC 2023-C45
P/2020 R5 (PANSTARRS),e,11.4409,272.9509,82.7292,4.990500,0.0884073,0.31392431,126.4968,04/29.0/2024,2000,g  9.5,6.0
# From MPEC 2021-Y10
C/2020 R6 (Rankin),e,82.8333,12.1915,271.9998,300.0800,0.0001896,0.98954535,0.0000,09/07.6222/2019,2000,g 11.0,4.0
# From MPEC 2024-H91
C/2020 R7 (ATLAS),h,09/16.2053/2022,114.9026,268.2990,347.8251,1.000148,2.955096,2000,7.0,3.2
# From MPEC 2021-BE3
P/2020 S1 (PANSTARRS),e,13.7216,129.5129,255.0668,5.997919,0.0670970,0.50751388,80.3412,04/29.0/2024,2000,g 14.0,4.0
# From MPEC 2022-ST7
C/2020 S2 (PANSTARRS),e,22.3991,197.6970,202.3656,10.23872,0.0300840,0.82818262,36.8131,04/29.0/2024,2000,g 17.0,4.0
# From MPEC 2024-H91
C/2020 S3 (Erasmus),e,20.0229,222.5884,350.0620,145.4529,0.0005619,0.99728238,0.0000,12/11.5882/2020,2000,g 13.5,3.2
# From MPEC 2024-H91
C/2020 S4 (PANSTARRS),h,02/09.2962/2023,20.5675,117.7048,21.0079,1.002001,3.369769,2000,8.5,3.2
# From MPEC 2021-BE3
P/2020 S5 (PANSTARRS),e,12.3442,316.0493,53.2419,4.056329,0.1206436,0.33802711,163.9533,04/29.0/2024,2000,g 14.5,4.0
# From MPEC 2021-BE3
P/2020 S7 (PANSTARRS),e,16.0805,328.0929,40.6116,5.033963,0.0872648,0.41025262,109.7230,04/29.0/2024,2000,g 14.5,4.0
# From MPEC 2021-P47
C/2020 S8 (Lemmon),e,108.5291,24.0586,160.2049,250.3540,0.0002488,0.99057973,0.0000,04/10.6747/2021,2000,g 12.5,4.0
# From MPEC 2022-TD3
C/2020 T2 (Palomar),e,27.8376,83.0582,150.4215,287.6279,0.0002020,0.99284645,0.0000,07/10.6866/2021,2000,g 11.0,3.2
# From MPEC 2021-N06
P/2020 T3 (PANSTARRS),e,7.2989,73.9932,357.0500,3.516593,0.1494586,0.59239577,178.3955,04/29.0/2024,2000,g 18.0,3.2
# From MPEC 2021-N06
C/2020 T4 (PANSTARRS),h,07/05.5735/2021,83.8530,50.6200,79.5884,1.000407,2.190154,2000,13.0,3.2
# From MPEC 2021-BE3
C/2020 T5 (Lemmon),e,66.5445,237.8285,90.3642,674.1568,0.0000563,0.99719033,0.0000,10/08.7391/2020,2000,g 16.0,4.0
# From MPEC 2021-N06
P/2020 U2 (PANSTARRS),e,6.4198,342.8671,84.6856,3.777957,0.1342204,0.51137261,163.6623,04/29.0/2024,2000,g 18.0,4.0
# From MPEC 2021-W31
C/2020 U3 (Rankin),e,30.1450,282.6407,124.3962,67.22534,0.0017882,0.96608631,2.1059,04/29.0/2024,2000,g 15.0,4.0
# From MPEC 2023-W26
C/2020 U4 (PANSTARRS),h,04/09.5843/2022,167.0163,120.3619,70.0956,1.000551,5.360341,2000,7.0,4.0
# From MPEC 2024-GJ3
C/2020 U5 (PANSTARRS),e,97.2906,107.3169,75.4493,4277,0.0000035,0.99912158,0.0000,04/28.0508/2022,2000,g  8.0,4.0
# From MPEC 2024-H91
C/2020 V2 (ZTF),h,05/08.4618/2023,131.6120,212.3722,162.3981,1.000803,2.227749,2000,4.9,4.0
# From MPEC 2023-D72
P/2020 V3 (PANSTARRS),e,23.0308,198.2573,249.5506,8.396814,0.0405072,0.25763727,47.4680,04/29.0/2024,2000,g  8.3,4.0
# From MPEC 2024-F34
P/2020 V4 (Rankin),e,14.2434,203.4846,257.1136,9.382750,0.0342933,0.45115593,34.7984,04/29.0/2024,2000,g  9.0,4.0
# From MPEC 2021-BE3
P/2020 W1 (Rankin),e,10.7813,124.3938,265.2375,7.221281,0.0507905,0.26615535,75.1549,04/29.0/2024,2000,g 10.0,4.0
# From MPEC 2021-BE3
C/2020 W5 (Lemmon),h,11/30.4652/2020,88.6129,75.4701,24.5348,1.001505,3.366964,2000,15.0,4.0
# From MPEC 2024-H91
P/2020 WJ5 (Lemmon),e,22.2899,177.7956,338.0673,6.015287,0.0668066,0.17168735,69.0789,04/29.0/2024,2000,g  8.5,4.0
# From MPEC 2024-F34
P/2020 X1 (ATLAS),e,31.6961,55.9803,323.4895,4.533506,0.1021064,0.36512399,140.7277,04/29.0/2024,2000,g 13.0,4.0
# From MPEC 2024-A43
C/2020 X2 (ATLAS),e,18.1847,105.3847,347.4530,16.49455,0.0147127,0.76793015,18.5288,04/29.0/2024,2000,g 10.6,4.0
# From MPEC 2021-S45
C/2020 X4 (Leonard),e,80.6323,161.9162,140.3178,40.72608,0.0037922,0.87171882,4.7787,04/29.0/2024,2000,g  9.0,4.0
# From MPEC 2024-C04
C/2020 Y2 (ATLAS),e,101.1916,26.5336,266.4179,1933,0.0000116,0.99837299,0.0000,06/18.3015/2022,2000,g  6.5,4.0
# From MPEC 2021-R75
C/2020 Y3 (ATLAS),e,83.1102,191.4155,341.8897,139.3877,0.0005989,0.98570145,0.0000,12/03.2540/2020,2000,g 13.5,4.0
# From MPEC 2023-CD7
C/2021 A1 (Leonard),h,01/03.3916/2022,132.7483,255.9095,225.1424,1.000119,0.616166,2000,8.5,4.0
# From MPEC 2022-F14
C/2021 A2 (NEOWISE),e,107.0150,125.1347,338.7683,228.5205,0.0002853,0.99381761,0.0000,01/22.1974/2021,2000,g 13.5,4.0
# From MPEC 2022-ED3
C/2021 A4 (NEOWISE),e,111.5734,307.1022,204.7236,42.38307,0.0035720,0.97289811,0.0000,03/19.5415/2021,2000,g 16.0,4.0
# From MPEC 2021-BE3
P/2021 A5 (PANSTARRS),e,18.1856,328.8222,61.3904,3.047426,0.1852697,0.13992255,233.8894,04/29.0/2024,2000,g 15.0,4.0
# From MPEC 2023-O39
C/2021 A6 (PANSTARRS),e,75.5854,164.0581,351.6104,8927,0.0000012,0.99911233,0.0000,05/02.8900/2021,2000,g  7.0,4.0
# From MPEC 2022-M88
C/2021 A7 (NEOWISE),e,78.1734,154.4651,355.9853,1848,0.0000124,0.99893667,0.0000,07/15.1312/2021,2000,g 10.0,4.0
# From MPEC 2024-GJ3
C/2021 A9 (PANSTARRS),h,12/02.2846/2023,158.0127,314.8331,211.4953,1.001057,7.760198,2000,6.0,4.0
# From MPEC 2021-N06
C/2021 A10 (NEOWISE),e,151.9562,188.7547,82.5164,89.44715,0.0011651,0.98587411,0.0000,03/15.0107/2021,2000,g 19.0,4.0
# From MPEC 2022-L66
C/2021 B2 (PANSTARRS),e,38.0824,120.4914,335.0168,382.0759,0.0001320,0.99342569,0.0000,05/04.6156/2021,2000,g 14.0,4.0
# From MPEC 2021-N06
C/2021 B3 (NEOWISE),e,119.4745,67.2734,293.5403,34.27068,0.0049127,0.93688590,5.6298,04/29.0/2024,2000,g 13.5,4.0
# From MPEC 2023-KD6
C/2021 C1 (Rankin),e,143.0430,186.8764,336.1499,3230,0.0000054,0.99892450,0.0000,12/06.5541/2020,2000,g 11.5,4.0
# From MPEC 2021-U31
P/2021 C2 (PANSTARRS),e,21.9404,66.4562,78.6964,9.537592,0.0334615,0.48780582,38.8248,04/29.0/2024,2000,g 12.0,4.0
# From MPEC 2021-N06
C/2021 C3 (Catalina),e,122.1745,181.9055,357.0190,61.01005,0.0020682,0.96273831,2.4245,04/29.0/2024,2000,g 14.0,4.0
# From MPEC 2022-M88
C/2021 C4 (ATLAS),e,132.8466,194.2660,320.1222,10974,0.0000009,0.99959017,0.0000,01/16.7645/2021,2000,g  9.0,4.0
# From MPEC 2023-R20
C/2021 C5 (PANSTARRS),e,50.7897,323.6739,270.9169,1818,0.0000127,0.99821725,0.0000,02/11.0088/2023,2000,g  9.0,4.0
# From MPEC 2022-YB4
C/2021 C6 (Lemmon),e,164.6041,332.3466,203.8211,3936,0.0000040,0.99916708,0.0000,11/12.4607/2021,2000,g 12.0,4.0
# From MPEC 2022-F14
C/2021 D1 (SWAN),e,31.4021,311.2421,72.3231,101.5457,0.0009632,0.99109381,0.0000,02/27.7292/2021,2000,g 13.0,4.0
# From MPEC 2023-J29
C/2021 D2 (ZTF),h,02/03.9198/2022,83.7934,305.6593,125.0328,1.001582,2.946713,2000,9.0,4.0
# From MPEC 2022-UY9
A/2021 E2,e,167.4895,190.7996,342.3061,212.6022,0.0003179,0.98926244,0.0000,12/09.9589/2020,2000,g 15.0,2.0
# From MPEC 2024-GJ3
C/2021 E3 (ZTF),h,06/11.7678/2022,112.5325,104.4829,228.8322,1.000516,1.777124,2000,8.5,4.0
# From MPEC 2023-SQ0
A/2021 E4,e,116.3634,171.1631,48.2666,530.9515,0.0000806,0.99119107,0.0000,04/25.0115/2022,2000,g 13.5,22.0
# From MPEC 2022-QD9
C/2021 F1 (Lemmon-PANSTARRS),e,107.3157,203.4786,146.8814,242.6951,0.0002607,0.99589015,0.0000,04/06.7801/2022,2000,g 13.5,4.0
# From MPEC 2021-J72
C/2021 G1 (Leonard),e,131.5491,270.6999,107.4408,72.45861,0.0015980,0.95273427,1.6182,04/29.0/2024,2000,g 14.0,4.0
# From MPEC 2024-H91
C/2021 G2 (ATLAS),h,09/09.2870/2024,48.4745,221.0942,343.2880,1.000003,4.982330,2000,5.5,4.0
# From MPEC 2022-X67
C/2021 G3 (PANSTARRS),e,102.8695,147.3829,10.5811,11982,0.0000008,0.99956766,0.0000,10/17.9097/2021,2000,g 10.5,4.0
# From MPEC 2021-Y10
P/2021 HS (PANSTARRS),e,12.1564,262.3650,46.1397,4.194352,0.1147379,0.80954336,114.4150,04/29.0/2024,2000,g 22.0,4.0
# From MPEC 2022-C56
C/2021 J1 (Maury-Attard),e,92.7138,88.4091,147.2791,26.30521,0.0073054,0.93390861,8.5080,04/29.0/2024,2000,g 15.5,4.0
# From MPEC 2023-XP6
C/2021 J2 (PANSTARRS),e,156.2126,23.3306,171.9549,115.1770,0.0007974,0.95917177,0.7577,04/29.0/2024,2000,g 12.0,4.0
# From MPEC 2024-F34
P/2021 J3 (ATLAS),e,14.5239,111.1001,125.8426,8.912690,0.0370417,0.44900980,65.3026,04/29.0/2024,2000,g  7.0,4.0
# From MPEC 2022-O08
C/2021 K1 (ATLAS),e,16.2736,140.9151,184.2665,12.64373,0.0219226,0.80223765,23.9249,04/29.0/2024,2000,g 11.0,4.0
# From MPEC 2022-O01
C/2021 K2 (MASTER),h,09/09.6652/2021,100.8625,282.3189,343.3413,1.000909,5.468469,2000,8.0,4.0
# From MPEC 2022-L66
C/2021 K3 (Catalina),h,02/03.9420/2022,134.7776,114.5817,182.0524,1.004469,5.231585,2000,10.0,4.0
# From MPEC 2021-W31
